<?xml version="1.0" encoding="UTF-8"?>
<gpx version="1.1" creator="ClaimTrek demo fixture" xmlns="http://www.topografix.com/GPX/1/1">
  <trk>
    <name>ClaimTrek demo loop</name>
    <trkseg>
      <trkpt lat="50.7216906" lon="10.4491439"><ele>320.1</ele><time>2026-09-07T08:00:00Z</time></trkpt>
      <trkpt lat="50.7217010" lon="10.4492183"><ele>320.3</ele><time>2026-09-07T08:00:02Z</time></trkpt>
      <trkpt lat="50.7217002" lon="10.4493028"><ele>320.4</ele><time>2026-09-07T08:00:04Z</time></trkpt>
      <trkpt lat="50.7216884" lon="10.4494039"><ele>320.7</ele><time>2026-09-07T08:00:06Z</time></trkpt>
      <trkpt lat="50.7217088" lon="10.4494887"><ele>321.1</ele><time>2026-09-07T08:00:08Z</time></trkpt>
      <trkpt lat="50.7217034" lon="10.4495653"><ele>321.9</ele><time>2026-09-07T08:00:10Z</time></trkpt>
      <trkpt lat="50.7216972" lon="10.4496655"><ele>322.2</ele><time>2026-09-07T08:00:12Z</time></trkpt>
      <trkpt lat="50.7217097" lon="10.4497280"><ele>322.1</ele><time>2026-09-07T08:00:14Z</time></trkpt>
      <trkpt lat="50.7216897" lon="10.4498173"><ele>322.5</ele><time>2026-09-07T08:00:16Z</time></trkpt>
      <trkpt lat="50.7216914" lon="10.4499310"><ele>322.9</ele><time>2026-09-07T08:00:18Z</time></trkpt>
      <trkpt lat="50.7216966" lon="10.4500086"><ele>323.2</ele><time>2026-09-07T08:00:20Z</time></trkpt>
      <trkpt lat="50.7216881" lon="10.4500692"><ele>323.3</ele><time>2026-09-07T08:00:22Z</time></trkpt>
      <trkpt lat="50.7216980" lon="10.4501807"><ele>323.6</ele><time>2026-09-07T08:00:24Z</time></trkpt>
      <trkpt lat="50.7216987" lon="10.4502618"><ele>323.8</ele><time>2026-09-07T08:00:26Z</time></trkpt>
      <trkpt lat="50.7217054" lon="10.4503558"><ele>324.1</ele><time>2026-09-07T08:00:28Z</time></trkpt>
      <trkpt lat="50.7217007" lon="10.4504316"><ele>324.7</ele><time>2026-09-07T08:00:30Z</time></trkpt>
      <trkpt lat="50.7216943" lon="10.4505233"><ele>324.9</ele><time>2026-09-07T08:00:32Z</time></trkpt>
      <trkpt lat="50.7216978" lon="10.4505824"><ele>325.0</ele><time>2026-09-07T08:00:34Z</time></trkpt>
      <trkpt lat="50.7216997" lon="10.4506690"><ele>324.8</ele><time>2026-09-07T08:00:36Z</time></trkpt>
      <trkpt lat="50.7217071" lon="10.4507761"><ele>325.3</ele><time>2026-09-07T08:00:38Z</time></trkpt>
      <trkpt lat="50.7216950" lon="10.4508701"><ele>325.5</ele><time>2026-09-07T08:00:40Z</time></trkpt>
      <trkpt lat="50.7217022" lon="10.4509432"><ele>325.5</ele><time>2026-09-07T08:00:42Z</time></trkpt>
      <trkpt lat="50.7217120" lon="10.4510388"><ele>325.6</ele><time>2026-09-07T08:00:44Z</time></trkpt>
      <trkpt lat="50.7216882" lon="10.4511165"><ele>325.9</ele><time>2026-09-07T08:00:46Z</time></trkpt>
      <trkpt lat="50.7217133" lon="10.4512009"><ele>326.0</ele><time>2026-09-07T08:00:48Z</time></trkpt>
      <trkpt lat="50.7216969" lon="10.4512706"><ele>326.0</ele><time>2026-09-07T08:00:50Z</time></trkpt>
      <trkpt lat="50.7216990" lon="10.4513446"><ele>325.8</ele><time>2026-09-07T08:00:52Z</time></trkpt>
      <trkpt lat="50.7216881" lon="10.4514337"><ele>326.1</ele><time>2026-09-07T08:00:54Z</time></trkpt>
      <trkpt lat="50.7216932" lon="10.4515194"><ele>325.9</ele><time>2026-09-07T08:00:56Z</time></trkpt>
      <trkpt lat="50.7216887" lon="10.4516361"><ele>326.0</ele><time>2026-09-07T08:00:58Z</time></trkpt>
      <trkpt lat="50.7217103" lon="10.4517076"><ele>326.2</ele><time>2026-09-07T08:01:00Z</time></trkpt>
      <trkpt lat="50.7216940" lon="10.4518061"><ele>325.9</ele><time>2026-09-07T08:01:02Z</time></trkpt>
      <trkpt lat="50.7217104" lon="10.4518697"><ele>326.1</ele><time>2026-09-07T08:01:04Z</time></trkpt>
      <trkpt lat="50.7216913" lon="10.4519460"><ele>325.6</ele><time>2026-09-07T08:01:06Z</time></trkpt>
      <trkpt lat="50.7216996" lon="10.4520346"><ele>325.8</ele><time>2026-09-07T08:01:08Z</time></trkpt>
      <trkpt lat="50.7216866" lon="10.4521210"><ele>325.5</ele><time>2026-09-07T08:01:10Z</time></trkpt>
      <trkpt lat="50.7217018" lon="10.4522107"><ele>325.7</ele><time>2026-09-07T08:01:12Z</time></trkpt>
      <trkpt lat="50.7217004" lon="10.4523095"><ele>325.4</ele><time>2026-09-07T08:01:14Z</time></trkpt>
      <trkpt lat="50.7216880" lon="10.4523940"><ele>325.4</ele><time>2026-09-07T08:01:16Z</time></trkpt>
      <trkpt lat="50.7217101" lon="10.4524836"><ele>325.1</ele><time>2026-09-07T08:01:18Z</time></trkpt>
      <trkpt lat="50.7216973" lon="10.4525522"><ele>324.5</ele><time>2026-09-07T08:01:20Z</time></trkpt>
      <trkpt lat="50.7216882" lon="10.4526477"><ele>324.3</ele><time>2026-09-07T08:01:22Z</time></trkpt>
      <trkpt lat="50.7216909" lon="10.4527147"><ele>324.2</ele><time>2026-09-07T08:01:24Z</time></trkpt>
      <trkpt lat="50.7216865" lon="10.4527932"><ele>323.9</ele><time>2026-09-07T08:01:26Z</time></trkpt>
      <trkpt lat="50.7216963" lon="10.4528804"><ele>323.6</ele><time>2026-09-07T08:01:28Z</time></trkpt>
      <trkpt lat="50.7217031" lon="10.4529984"><ele>323.4</ele><time>2026-09-07T08:01:30Z</time></trkpt>
      <trkpt lat="50.7216959" lon="10.4530571"><ele>323.2</ele><time>2026-09-07T08:01:32Z</time></trkpt>
      <trkpt lat="50.7217094" lon="10.4531367"><ele>323.3</ele><time>2026-09-07T08:01:34Z</time></trkpt>
      <trkpt lat="50.7216996" lon="10.4532365"><ele>322.5</ele><time>2026-09-07T08:01:36Z</time></trkpt>
      <trkpt lat="50.7216958" lon="10.4533061"><ele>322.3</ele><time>2026-09-07T08:01:38Z</time></trkpt>
      <trkpt lat="50.7216909" lon="10.4534222"><ele>321.8</ele><time>2026-09-07T08:01:40Z</time></trkpt>
      <trkpt lat="50.7217037" lon="10.4535164"><ele>321.6</ele><time>2026-09-07T08:01:42Z</time></trkpt>
      <trkpt lat="50.7216990" lon="10.4535870"><ele>321.5</ele><time>2026-09-07T08:01:44Z</time></trkpt>
      <trkpt lat="50.7217362" lon="10.4536916"><ele>321.3</ele><time>2026-09-07T08:01:46Z</time></trkpt>
      <trkpt lat="50.7217430" lon="10.4537443"><ele>320.6</ele><time>2026-09-07T08:01:48Z</time></trkpt>
      <trkpt lat="50.7217731" lon="10.4538454"><ele>320.7</ele><time>2026-09-07T08:01:50Z</time></trkpt>
      <trkpt lat="50.7217955" lon="10.4539013"><ele>320.4</ele><time>2026-09-07T08:01:52Z</time></trkpt>
      <trkpt lat="50.7218479" lon="10.4539985"><ele>320.0</ele><time>2026-09-07T08:01:54Z</time></trkpt>
      <trkpt lat="50.7218848" lon="10.4540544"><ele>319.4</ele><time>2026-09-07T08:01:56Z</time></trkpt>
      <trkpt lat="50.7219183" lon="10.4540977"><ele>318.9</ele><time>2026-09-07T08:01:58Z</time></trkpt>
      <trkpt lat="50.7219635" lon="10.4541254"><ele>318.7</ele><time>2026-09-07T08:02:00Z</time></trkpt>
      <trkpt lat="50.7220321" lon="10.4541941"><ele>318.5</ele><time>2026-09-07T08:02:02Z</time></trkpt>
      <trkpt lat="50.7220856" lon="10.4542365"><ele>318.5</ele><time>2026-09-07T08:02:04Z</time></trkpt>
      <trkpt lat="50.7221194" lon="10.4542352"><ele>317.7</ele><time>2026-09-07T08:02:06Z</time></trkpt>
      <trkpt lat="50.7221747" lon="10.4542420"><ele>317.7</ele><time>2026-09-07T08:02:08Z</time></trkpt>
      <trkpt lat="50.7222482" lon="10.4542766"><ele>317.3</ele><time>2026-09-07T08:02:10Z</time></trkpt>
      <trkpt lat="50.7223017" lon="10.4542660"><ele>316.7</ele><time>2026-09-07T08:02:12Z</time></trkpt>
      <trkpt lat="50.7223594" lon="10.4542664"><ele>316.9</ele><time>2026-09-07T08:02:14Z</time></trkpt>
      <trkpt lat="50.7224024" lon="10.4542702"><ele>316.2</ele><time>2026-09-07T08:02:16Z</time></trkpt>
      <trkpt lat="50.7224532" lon="10.4542718"><ele>316.4</ele><time>2026-09-07T08:02:18Z</time></trkpt>
      <trkpt lat="50.7225096" lon="10.4542796"><ele>315.9</ele><time>2026-09-07T08:02:20Z</time></trkpt>
      <trkpt lat="50.7225731" lon="10.4542786"><ele>315.5</ele><time>2026-09-07T08:02:22Z</time></trkpt>
      <trkpt lat="50.7226123" lon="10.4542437"><ele>315.7</ele><time>2026-09-07T08:02:24Z</time></trkpt>
      <trkpt lat="50.7226669" lon="10.4542726"><ele>315.4</ele><time>2026-09-07T08:02:26Z</time></trkpt>
      <trkpt lat="50.7227353" lon="10.4542800"><ele>315.0</ele><time>2026-09-07T08:02:28Z</time></trkpt>
      <trkpt lat="50.7227758" lon="10.4542616"><ele>314.6</ele><time>2026-09-07T08:02:30Z</time></trkpt>
      <trkpt lat="50.7228445" lon="10.4542796"><ele>314.7</ele><time>2026-09-07T08:02:32Z</time></trkpt>
      <trkpt lat="50.7228934" lon="10.4542780"><ele>314.8</ele><time>2026-09-07T08:02:34Z</time></trkpt>
      <trkpt lat="50.7229420" lon="10.4542734"><ele>314.3</ele><time>2026-09-07T08:02:36Z</time></trkpt>
      <trkpt lat="50.7229975" lon="10.4542507"><ele>314.4</ele><time>2026-09-07T08:02:38Z</time></trkpt>
      <trkpt lat="50.7230570" lon="10.4542493"><ele>314.0</ele><time>2026-09-07T08:02:40Z</time></trkpt>
      <trkpt lat="50.7231099" lon="10.4542770"><ele>314.1</ele><time>2026-09-07T08:02:42Z</time></trkpt>
      <trkpt lat="50.7231794" lon="10.4542631"><ele>314.0</ele><time>2026-09-07T08:02:44Z</time></trkpt>
      <trkpt lat="50.7232233" lon="10.4542773"><ele>314.0</ele><time>2026-09-07T08:02:46Z</time></trkpt>
      <trkpt lat="50.7232649" lon="10.4542605"><ele>314.0</ele><time>2026-09-07T08:02:48Z</time></trkpt>
      <trkpt lat="50.7233192" lon="10.4542460"><ele>314.2</ele><time>2026-09-07T08:02:50Z</time></trkpt>
      <trkpt lat="50.7233865" lon="10.4542456"><ele>314.1</ele><time>2026-09-07T08:02:52Z</time></trkpt>
      <trkpt lat="50.7234373" lon="10.4542619"><ele>314.1</ele><time>2026-09-07T08:02:54Z</time></trkpt>
      <trkpt lat="50.7235043" lon="10.4542619"><ele>313.9</ele><time>2026-09-07T08:02:56Z</time></trkpt>
      <trkpt lat="50.7235462" lon="10.4542574"><ele>314.0</ele><time>2026-09-07T08:02:58Z</time></trkpt>
      <trkpt lat="50.7236089" lon="10.4542525"><ele>314.3</ele><time>2026-09-07T08:03:00Z</time></trkpt>
      <trkpt lat="50.7236743" lon="10.4542289"><ele>314.3</ele><time>2026-09-07T08:03:02Z</time></trkpt>
      <trkpt lat="50.7237160" lon="10.4541907"><ele>314.5</ele><time>2026-09-07T08:03:04Z</time></trkpt>
      <trkpt lat="50.7237648" lon="10.4541537"><ele>314.6</ele><time>2026-09-07T08:03:06Z</time></trkpt>
      <trkpt lat="50.7238253" lon="10.4540960"><ele>314.9</ele><time>2026-09-07T08:03:08Z</time></trkpt>
      <trkpt lat="50.7238692" lon="10.4540569"><ele>314.8</ele><time>2026-09-07T08:03:10Z</time></trkpt>
      <trkpt lat="50.7239091" lon="10.4539804"><ele>315.3</ele><time>2026-09-07T08:03:12Z</time></trkpt>
      <trkpt lat="50.7239225" lon="10.4538931"><ele>315.3</ele><time>2026-09-07T08:03:14Z</time></trkpt>
      <trkpt lat="50.7239564" lon="10.4538157"><ele>315.3</ele><time>2026-09-07T08:03:16Z</time></trkpt>
      <trkpt lat="50.7239967" lon="10.4537617"><ele>316.0</ele><time>2026-09-07T08:03:18Z</time></trkpt>
      <trkpt lat="50.7240151" lon="10.4536565"><ele>316.1</ele><time>2026-09-07T08:03:20Z</time></trkpt>
      <trkpt lat="50.7240341" lon="10.4535700"><ele>316.5</ele><time>2026-09-07T08:03:22Z</time></trkpt>
      <trkpt lat="50.7240449" lon="10.4534852"><ele>316.5</ele><time>2026-09-07T08:03:24Z</time></trkpt>
      <trkpt lat="50.7240488" lon="10.4534076"><ele>317.0</ele><time>2026-09-07T08:03:26Z</time></trkpt>
      <trkpt lat="50.7240338" lon="10.4533086"><ele>317.1</ele><time>2026-09-07T08:03:28Z</time></trkpt>
      <trkpt lat="50.7240274" lon="10.4532310"><ele>317.3</ele><time>2026-09-07T08:03:30Z</time></trkpt>
      <trkpt lat="50.7240227" lon="10.4531622"><ele>317.7</ele><time>2026-09-07T08:03:32Z</time></trkpt>
      <trkpt lat="50.7240226" lon="10.4530651"><ele>317.9</ele><time>2026-09-07T08:03:34Z</time></trkpt>
      <trkpt lat="50.7240359" lon="10.4529878"><ele>318.1</ele><time>2026-09-07T08:03:36Z</time></trkpt>
      <trkpt lat="50.7240434" lon="10.4529180"><ele>318.9</ele><time>2026-09-07T08:03:38Z</time></trkpt>
      <trkpt lat="50.7240293" lon="10.4527954"><ele>318.7</ele><time>2026-09-07T08:03:40Z</time></trkpt>
      <trkpt lat="50.7240294" lon="10.4527390"><ele>319.1</ele><time>2026-09-07T08:03:42Z</time></trkpt>
      <trkpt lat="50.7240467" lon="10.4526386"><ele>319.8</ele><time>2026-09-07T08:03:44Z</time></trkpt>
      <trkpt lat="50.7240262" lon="10.4525465"><ele>320.2</ele><time>2026-09-07T08:03:46Z</time></trkpt>
      <trkpt lat="50.7240410" lon="10.4524747"><ele>320.1</ele><time>2026-09-07T08:03:48Z</time></trkpt>
      <trkpt lat="50.7240407" lon="10.4523677"><ele>320.6</ele><time>2026-09-07T08:03:50Z</time></trkpt>
      <trkpt lat="50.7240474" lon="10.4522832"><ele>321.0</ele><time>2026-09-07T08:03:52Z</time></trkpt>
      <trkpt lat="50.7240244" lon="10.4522291"><ele>321.5</ele><time>2026-09-07T08:03:54Z</time></trkpt>
      <trkpt lat="50.7240454" lon="10.4521127"><ele>321.6</ele><time>2026-09-07T08:03:56Z</time></trkpt>
      <trkpt lat="50.7240370" lon="10.4520391"><ele>322.2</ele><time>2026-09-07T08:03:58Z</time></trkpt>
      <trkpt lat="50.7240256" lon="10.4519510"><ele>322.3</ele><time>2026-09-07T08:04:00Z</time></trkpt>
      <trkpt lat="50.7240251" lon="10.4518646"><ele>322.3</ele><time>2026-09-07T08:04:02Z</time></trkpt>
      <trkpt lat="50.7240276" lon="10.4517714"><ele>322.7</ele><time>2026-09-07T08:04:04Z</time></trkpt>
      <trkpt lat="50.7240426" lon="10.4516971"><ele>323.0</ele><time>2026-09-07T08:04:06Z</time></trkpt>
      <trkpt lat="50.7240269" lon="10.4516203"><ele>323.3</ele><time>2026-09-07T08:04:08Z</time></trkpt>
      <trkpt lat="50.7240289" lon="10.4515147"><ele>323.4</ele><time>2026-09-07T08:04:10Z</time></trkpt>
      <trkpt lat="50.7240370" lon="10.4514600"><ele>323.8</ele><time>2026-09-07T08:04:12Z</time></trkpt>
      <trkpt lat="50.7240473" lon="10.4513638"><ele>324.0</ele><time>2026-09-07T08:04:14Z</time></trkpt>
      <trkpt lat="50.7240338" lon="10.4512933"><ele>324.4</ele><time>2026-09-07T08:04:16Z</time></trkpt>
      <trkpt lat="50.7240327" lon="10.4512089"><ele>324.6</ele><time>2026-09-07T08:04:18Z</time></trkpt>
      <trkpt lat="50.7240486" lon="10.4511175"><ele>324.7</ele><time>2026-09-07T08:04:20Z</time></trkpt>
      <trkpt lat="50.7240412" lon="10.4510385"><ele>325.1</ele><time>2026-09-07T08:04:22Z</time></trkpt>
      <trkpt lat="50.7240315" lon="10.4509352"><ele>324.9</ele><time>2026-09-07T08:04:24Z</time></trkpt>
      <trkpt lat="50.7240240" lon="10.4508383"><ele>325.5</ele><time>2026-09-07T08:04:26Z</time></trkpt>
      <trkpt lat="50.7240265" lon="10.4507585"><ele>325.3</ele><time>2026-09-07T08:04:28Z</time></trkpt>
      <trkpt lat="50.7240456" lon="10.4506983"><ele>325.7</ele><time>2026-09-07T08:04:30Z</time></trkpt>
      <trkpt lat="50.7240287" lon="10.4505894"><ele>325.6</ele><time>2026-09-07T08:04:32Z</time></trkpt>
      <trkpt lat="50.7240264" lon="10.4505118"><ele>325.8</ele><time>2026-09-07T08:04:34Z</time></trkpt>
      <trkpt lat="50.7240481" lon="10.4504183"><ele>326.2</ele><time>2026-09-07T08:04:36Z</time></trkpt>
      <trkpt lat="50.7240287" lon="10.4503453"><ele>326.2</ele><time>2026-09-07T08:04:38Z</time></trkpt>
      <trkpt lat="50.7240317" lon="10.4502500"><ele>325.7</ele><time>2026-09-07T08:04:40Z</time></trkpt>
      <trkpt lat="50.7240349" lon="10.4501680"><ele>326.0</ele><time>2026-09-07T08:04:42Z</time></trkpt>
      <trkpt lat="50.7240357" lon="10.4500751"><ele>325.7</ele><time>2026-09-07T08:04:44Z</time></trkpt>
      <trkpt lat="50.7240246" lon="10.4499927"><ele>325.9</ele><time>2026-09-07T08:04:46Z</time></trkpt>
      <trkpt lat="50.7240227" lon="10.4498981"><ele>325.8</ele><time>2026-09-07T08:04:48Z</time></trkpt>
      <trkpt lat="50.7240379" lon="10.4498211"><ele>325.9</ele><time>2026-09-07T08:04:50Z</time></trkpt>
      <trkpt lat="50.7240399" lon="10.4497580"><ele>325.9</ele><time>2026-09-07T08:04:52Z</time></trkpt>
      <trkpt lat="50.7240326" lon="10.4496783"><ele>325.6</ele><time>2026-09-07T08:04:54Z</time></trkpt>
      <trkpt lat="50.7240262" lon="10.4495977"><ele>325.7</ele><time>2026-09-07T08:04:56Z</time></trkpt>
      <trkpt lat="50.7240233" lon="10.4494980"><ele>325.7</ele><time>2026-09-07T08:04:58Z</time></trkpt>
      <trkpt lat="50.7240390" lon="10.4494235"><ele>325.5</ele><time>2026-09-07T08:05:00Z</time></trkpt>
      <trkpt lat="50.7240259" lon="10.4493349"><ele>325.2</ele><time>2026-09-07T08:05:02Z</time></trkpt>
      <trkpt lat="50.7240446" lon="10.4492367"><ele>325.2</ele><time>2026-09-07T08:05:04Z</time></trkpt>
      <trkpt lat="50.7240379" lon="10.4491653"><ele>325.0</ele><time>2026-09-07T08:05:06Z</time></trkpt>
      <trkpt lat="50.7240379" lon="10.4490702"><ele>324.4</ele><time>2026-09-07T08:05:08Z</time></trkpt>
      <trkpt lat="50.7240139" lon="10.4489544"><ele>324.3</ele><time>2026-09-07T08:05:10Z</time></trkpt>
      <trkpt lat="50.7240183" lon="10.4488715"><ele>324.2</ele><time>2026-09-07T08:05:12Z</time></trkpt>
      <trkpt lat="50.7239924" lon="10.4488105"><ele>324.0</ele><time>2026-09-07T08:05:14Z</time></trkpt>
      <trkpt lat="50.7239500" lon="10.4487252"><ele>323.8</ele><time>2026-09-07T08:05:16Z</time></trkpt>
      <trkpt lat="50.7239328" lon="10.4486615"><ele>323.4</ele><time>2026-09-07T08:05:18Z</time></trkpt>
      <trkpt lat="50.7238855" lon="10.4485885"><ele>323.2</ele><time>2026-09-07T08:05:20Z</time></trkpt>
      <trkpt lat="50.7238458" lon="10.4485081"><ele>322.6</ele><time>2026-09-07T08:05:22Z</time></trkpt>
      <trkpt lat="50.7238055" lon="10.4484724"><ele>322.6</ele><time>2026-09-07T08:05:24Z</time></trkpt>
      <trkpt lat="50.7237660" lon="10.4484343"><ele>322.1</ele><time>2026-09-07T08:05:26Z</time></trkpt>
      <trkpt lat="50.7237208" lon="10.4483727"><ele>322.0</ele><time>2026-09-07T08:05:28Z</time></trkpt>
      <trkpt lat="50.7236670" lon="10.4483466"><ele>321.3</ele><time>2026-09-07T08:05:30Z</time></trkpt>
      <trkpt lat="50.7236021" lon="10.4483036"><ele>321.4</ele><time>2026-09-07T08:05:32Z</time></trkpt>
      <trkpt lat="50.7235548" lon="10.4482963"><ele>320.6</ele><time>2026-09-07T08:05:34Z</time></trkpt>
      <trkpt lat="50.7234904" lon="10.4482813"><ele>320.7</ele><time>2026-09-07T08:05:36Z</time></trkpt>
      <trkpt lat="50.7234467" lon="10.4483082"><ele>320.1</ele><time>2026-09-07T08:05:38Z</time></trkpt>
      <trkpt lat="50.7233863" lon="10.4483007"><ele>319.9</ele><time>2026-09-07T08:05:40Z</time></trkpt>
      <trkpt lat="50.7233432" lon="10.4482838"><ele>319.4</ele><time>2026-09-07T08:05:42Z</time></trkpt>
      <trkpt lat="50.7232897" lon="10.4483204"><ele>318.9</ele><time>2026-09-07T08:05:44Z</time></trkpt>
      <trkpt lat="50.7232318" lon="10.4482983"><ele>319.2</ele><time>2026-09-07T08:05:46Z</time></trkpt>
      <trkpt lat="50.7231623" lon="10.4482978"><ele>318.4</ele><time>2026-09-07T08:05:48Z</time></trkpt>
      <trkpt lat="50.7231061" lon="10.4483190"><ele>318.3</ele><time>2026-09-07T08:05:50Z</time></trkpt>
      <trkpt lat="50.7230598" lon="10.4482847"><ele>318.2</ele><time>2026-09-07T08:05:52Z</time></trkpt>
      <trkpt lat="50.7230131" lon="10.4482844"><ele>317.6</ele><time>2026-09-07T08:05:54Z</time></trkpt>
      <trkpt lat="50.7229553" lon="10.4483165"><ele>317.2</ele><time>2026-09-07T08:05:56Z</time></trkpt>
      <trkpt lat="50.7228948" lon="10.4483169"><ele>316.7</ele><time>2026-09-07T08:05:58Z</time></trkpt>
      <trkpt lat="50.7228402" lon="10.4482789"><ele>316.7</ele><time>2026-09-07T08:06:00Z</time></trkpt>
      <trkpt lat="50.7227761" lon="10.4482916"><ele>316.4</ele><time>2026-09-07T08:06:02Z</time></trkpt>
      <trkpt lat="50.7227403" lon="10.4482922"><ele>315.9</ele><time>2026-09-07T08:06:04Z</time></trkpt>
      <trkpt lat="50.7226856" lon="10.4483107"><ele>315.7</ele><time>2026-09-07T08:06:06Z</time></trkpt>
      <trkpt lat="50.7226275" lon="10.4483182"><ele>315.9</ele><time>2026-09-07T08:06:08Z</time></trkpt>
      <trkpt lat="50.7225636" lon="10.4482911"><ele>315.4</ele><time>2026-09-07T08:06:10Z</time></trkpt>
      <trkpt lat="50.7225148" lon="10.4483212"><ele>315.2</ele><time>2026-09-07T08:06:12Z</time></trkpt>
      <trkpt lat="50.7224516" lon="10.4482969"><ele>314.8</ele><time>2026-09-07T08:06:14Z</time></trkpt>
      <trkpt lat="50.7224120" lon="10.4482830"><ele>314.8</ele><time>2026-09-07T08:06:16Z</time></trkpt>
      <trkpt lat="50.7223416" lon="10.4483185"><ele>314.6</ele><time>2026-09-07T08:06:18Z</time></trkpt>
      <trkpt lat="50.7222853" lon="10.4483005"><ele>314.5</ele><time>2026-09-07T08:06:20Z</time></trkpt>
      <trkpt lat="50.7222493" lon="10.4483194"><ele>314.6</ele><time>2026-09-07T08:06:22Z</time></trkpt>
      <trkpt lat="50.7221938" lon="10.4483102"><ele>314.6</ele><time>2026-09-07T08:06:24Z</time></trkpt>
      <trkpt lat="50.7221328" lon="10.4483207"><ele>314.0</ele><time>2026-09-07T08:06:26Z</time></trkpt>
      <trkpt lat="50.7220711" lon="10.4483516"><ele>314.3</ele><time>2026-09-07T08:06:28Z</time></trkpt>
      <trkpt lat="50.7220140" lon="10.4483798"><ele>313.8</ele><time>2026-09-07T08:06:30Z</time></trkpt>
      <trkpt lat="50.7219594" lon="10.4484322"><ele>314.0</ele><time>2026-09-07T08:06:32Z</time></trkpt>
      <trkpt lat="50.7219167" lon="10.4484559"><ele>314.2</ele><time>2026-09-07T08:06:34Z</time></trkpt>
      <trkpt lat="50.7218719" lon="10.4485390"><ele>314.1</ele><time>2026-09-07T08:06:36Z</time></trkpt>
      <trkpt lat="50.7218400" lon="10.4485732"><ele>313.9</ele><time>2026-09-07T08:06:38Z</time></trkpt>
      <trkpt lat="50.7217938" lon="10.4486368"><ele>313.9</ele><time>2026-09-07T08:06:40Z</time></trkpt>
      <trkpt lat="50.7217721" lon="10.4487430"><ele>313.9</ele><time>2026-09-07T08:06:42Z</time></trkpt>
      <trkpt lat="50.7217600" lon="10.4488224"><ele>314.1</ele><time>2026-09-07T08:06:44Z</time></trkpt>
      <trkpt lat="50.7217181" lon="10.4488729"><ele>314.0</ele><time>2026-09-07T08:06:46Z</time></trkpt>
      <trkpt lat="50.7217008" lon="10.4489676"><ele>314.2</ele><time>2026-09-07T08:06:48Z</time></trkpt>
      <trkpt lat="50.7217048" lon="10.4490521"><ele>314.7</ele><time>2026-09-07T08:06:50Z</time></trkpt>
      <trkpt lat="50.7216976" lon="10.4491620"><ele>314.5</ele><time>2026-09-07T08:06:52Z</time></trkpt>
    </trkseg>
  </trk>
</gpx>
