<?xml version="1.0" encoding="UTF-8"?>
<gpx version="1.1" creator="ClaimTrek figure-eight fixture" xmlns="http://www.topografix.com/GPX/1/1">
  <trk>
    <name>ClaimTrek figure eight</name>
    <trkseg>
      <trkpt lat="50.7216906" lon="10.4491439"><ele>319.9</ele><time>2026-09-25T08:00:00Z</time></trkpt>
      <trkpt lat="50.7216432" lon="10.4490901"><ele>320.1</ele><time>2026-09-25T08:00:02Z</time></trkpt>
      <trkpt lat="50.7216078" lon="10.4490398"><ele>320.4</ele><time>2026-09-25T08:00:04Z</time></trkpt>
      <trkpt lat="50.7215751" lon="10.4489608"><ele>320.5</ele><time>2026-09-25T08:00:06Z</time></trkpt>
      <trkpt lat="50.7215455" lon="10.4488907"><ele>320.5</ele><time>2026-09-25T08:00:08Z</time></trkpt>
      <trkpt lat="50.7214903" lon="10.4488305"><ele>320.8</ele><time>2026-09-25T08:00:10Z</time></trkpt>
      <trkpt lat="50.7214720" lon="10.4487741"><ele>321.0</ele><time>2026-09-25T08:00:12Z</time></trkpt>
      <trkpt lat="50.7214213" lon="10.4487016"><ele>321.4</ele><time>2026-09-25T08:00:14Z</time></trkpt>
      <trkpt lat="50.7213927" lon="10.4486363"><ele>321.3</ele><time>2026-09-25T08:00:16Z</time></trkpt>
      <trkpt lat="50.7213509" lon="10.4485927"><ele>321.6</ele><time>2026-09-25T08:00:18Z</time></trkpt>
      <trkpt lat="50.7213224" lon="10.4485220"><ele>321.9</ele><time>2026-09-25T08:00:20Z</time></trkpt>
      <trkpt lat="50.7212771" lon="10.4484590"><ele>321.7</ele><time>2026-09-25T08:00:22Z</time></trkpt>
      <trkpt lat="50.7212508" lon="10.4484041"><ele>321.9</ele><time>2026-09-25T08:00:24Z</time></trkpt>
      <trkpt lat="50.7212200" lon="10.4483359"><ele>322.3</ele><time>2026-09-25T08:00:26Z</time></trkpt>
      <trkpt lat="50.7211820" lon="10.4482646"><ele>322.3</ele><time>2026-09-25T08:00:28Z</time></trkpt>
      <trkpt lat="50.7211479" lon="10.4481936"><ele>322.6</ele><time>2026-09-25T08:00:30Z</time></trkpt>
      <trkpt lat="50.7211303" lon="10.4480951"><ele>322.8</ele><time>2026-09-25T08:00:32Z</time></trkpt>
      <trkpt lat="50.7211054" lon="10.4480510"><ele>322.8</ele><time>2026-09-25T08:00:34Z</time></trkpt>
      <trkpt lat="50.7210636" lon="10.4479511"><ele>323.0</ele><time>2026-09-25T08:00:36Z</time></trkpt>
      <trkpt lat="50.7210366" lon="10.4478863"><ele>323.3</ele><time>2026-09-25T08:00:38Z</time></trkpt>
      <trkpt lat="50.7210265" lon="10.4478096"><ele>323.2</ele><time>2026-09-25T08:00:40Z</time></trkpt>
      <trkpt lat="50.7209897" lon="10.4477229"><ele>323.4</ele><time>2026-09-25T08:00:42Z</time></trkpt>
      <trkpt lat="50.7209782" lon="10.4476439"><ele>323.5</ele><time>2026-09-25T08:00:44Z</time></trkpt>
      <trkpt lat="50.7209699" lon="10.4475824"><ele>323.6</ele><time>2026-09-25T08:00:46Z</time></trkpt>
      <trkpt lat="50.7209380" lon="10.4474856"><ele>323.9</ele><time>2026-09-25T08:00:48Z</time></trkpt>
      <trkpt lat="50.7209246" lon="10.4474225"><ele>324.1</ele><time>2026-09-25T08:00:50Z</time></trkpt>
      <trkpt lat="50.7209087" lon="10.4473159"><ele>324.2</ele><time>2026-09-25T08:00:52Z</time></trkpt>
      <trkpt lat="50.7209026" lon="10.4472330"><ele>324.2</ele><time>2026-09-25T08:00:54Z</time></trkpt>
      <trkpt lat="50.7209008" lon="10.4471444"><ele>324.3</ele><time>2026-09-25T08:00:56Z</time></trkpt>
      <trkpt lat="50.7209003" lon="10.4470656"><ele>324.4</ele><time>2026-09-25T08:00:58Z</time></trkpt>
      <trkpt lat="50.7208877" lon="10.4469693"><ele>324.4</ele><time>2026-09-25T08:01:00Z</time></trkpt>
      <trkpt lat="50.7208946" lon="10.4468986"><ele>324.8</ele><time>2026-09-25T08:01:02Z</time></trkpt>
      <trkpt lat="50.7209060" lon="10.4468122"><ele>325.0</ele><time>2026-09-25T08:01:04Z</time></trkpt>
      <trkpt lat="50.7208979" lon="10.4467119"><ele>324.7</ele><time>2026-09-25T08:01:06Z</time></trkpt>
      <trkpt lat="50.7209197" lon="10.4466386"><ele>325.1</ele><time>2026-09-25T08:01:08Z</time></trkpt>
      <trkpt lat="50.7209409" lon="10.4465543"><ele>324.9</ele><time>2026-09-25T08:01:10Z</time></trkpt>
      <trkpt lat="50.7209404" lon="10.4464892"><ele>325.3</ele><time>2026-09-25T08:01:12Z</time></trkpt>
      <trkpt lat="50.7209756" lon="10.4463812"><ele>325.4</ele><time>2026-09-25T08:01:14Z</time></trkpt>
      <trkpt lat="50.7209892" lon="10.4463354"><ele>325.2</ele><time>2026-09-25T08:01:16Z</time></trkpt>
      <trkpt lat="50.7210111" lon="10.4462589"><ele>325.2</ele><time>2026-09-25T08:01:18Z</time></trkpt>
      <trkpt lat="50.7210404" lon="10.4461728"><ele>325.5</ele><time>2026-09-25T08:01:20Z</time></trkpt>
      <trkpt lat="50.7210632" lon="10.4460871"><ele>325.6</ele><time>2026-09-25T08:01:22Z</time></trkpt>
      <trkpt lat="50.7210968" lon="10.4460305"><ele>325.6</ele><time>2026-09-25T08:01:24Z</time></trkpt>
      <trkpt lat="50.7211459" lon="10.4459763"><ele>325.7</ele><time>2026-09-25T08:01:26Z</time></trkpt>
      <trkpt lat="50.7211771" lon="10.4459060"><ele>325.6</ele><time>2026-09-25T08:01:28Z</time></trkpt>
      <trkpt lat="50.7212205" lon="10.4458442"><ele>325.6</ele><time>2026-09-25T08:01:30Z</time></trkpt>
      <trkpt lat="50.7212702" lon="10.4458114"><ele>325.9</ele><time>2026-09-25T08:01:32Z</time></trkpt>
      <trkpt lat="50.7213086" lon="10.4457422"><ele>325.8</ele><time>2026-09-25T08:01:34Z</time></trkpt>
      <trkpt lat="50.7213695" lon="10.4457042"><ele>326.0</ele><time>2026-09-25T08:01:36Z</time></trkpt>
      <trkpt lat="50.7214136" lon="10.4456831"><ele>325.8</ele><time>2026-09-25T08:01:38Z</time></trkpt>
      <trkpt lat="50.7214604" lon="10.4456448"><ele>326.0</ele><time>2026-09-25T08:01:40Z</time></trkpt>
      <trkpt lat="50.7215013" lon="10.4456357"><ele>326.0</ele><time>2026-09-25T08:01:42Z</time></trkpt>
      <trkpt lat="50.7215702" lon="10.4456272"><ele>326.2</ele><time>2026-09-25T08:01:44Z</time></trkpt>
      <trkpt lat="50.7216128" lon="10.4456184"><ele>325.9</ele><time>2026-09-25T08:01:46Z</time></trkpt>
      <trkpt lat="50.7216832" lon="10.4455985"><ele>325.9</ele><time>2026-09-25T08:01:48Z</time></trkpt>
      <trkpt lat="50.7217348" lon="10.4456130"><ele>326.0</ele><time>2026-09-25T08:01:50Z</time></trkpt>
      <trkpt lat="50.7217912" lon="10.4456095"><ele>326.1</ele><time>2026-09-25T08:01:52Z</time></trkpt>
      <trkpt lat="50.7218424" lon="10.4456118"><ele>325.9</ele><time>2026-09-25T08:01:54Z</time></trkpt>
      <trkpt lat="50.7218975" lon="10.4456338"><ele>326.1</ele><time>2026-09-25T08:01:56Z</time></trkpt>
      <trkpt lat="50.7219347" lon="10.4456571"><ele>326.0</ele><time>2026-09-25T08:01:58Z</time></trkpt>
      <trkpt lat="50.7219934" lon="10.4457062"><ele>326.1</ele><time>2026-09-25T08:02:00Z</time></trkpt>
      <trkpt lat="50.7220455" lon="10.4457392"><ele>325.9</ele><time>2026-09-25T08:02:02Z</time></trkpt>
      <trkpt lat="50.7220842" lon="10.4457689"><ele>325.9</ele><time>2026-09-25T08:02:04Z</time></trkpt>
      <trkpt lat="50.7221381" lon="10.4458216"><ele>325.7</ele><time>2026-09-25T08:02:06Z</time></trkpt>
      <trkpt lat="50.7221791" lon="10.4458581"><ele>325.7</ele><time>2026-09-25T08:02:08Z</time></trkpt>
      <trkpt lat="50.7222064" lon="10.4459266"><ele>325.9</ele><time>2026-09-25T08:02:10Z</time></trkpt>
      <trkpt lat="50.7222485" lon="10.4459828"><ele>325.8</ele><time>2026-09-25T08:02:12Z</time></trkpt>
      <trkpt lat="50.7222836" lon="10.4460553"><ele>325.8</ele><time>2026-09-25T08:02:14Z</time></trkpt>
      <trkpt lat="50.7223183" lon="10.4461207"><ele>325.7</ele><time>2026-09-25T08:02:16Z</time></trkpt>
      <trkpt lat="50.7223564" lon="10.4462049"><ele>325.4</ele><time>2026-09-25T08:02:18Z</time></trkpt>
      <trkpt lat="50.7223801" lon="10.4462802"><ele>325.5</ele><time>2026-09-25T08:02:20Z</time></trkpt>
      <trkpt lat="50.7224078" lon="10.4463415"><ele>325.5</ele><time>2026-09-25T08:02:22Z</time></trkpt>
      <trkpt lat="50.7224259" lon="10.4464210"><ele>325.4</ele><time>2026-09-25T08:02:24Z</time></trkpt>
      <trkpt lat="50.7224495" lon="10.4465226"><ele>325.3</ele><time>2026-09-25T08:02:26Z</time></trkpt>
      <trkpt lat="50.7224576" lon="10.4465763"><ele>325.2</ele><time>2026-09-25T08:02:28Z</time></trkpt>
      <trkpt lat="50.7224661" lon="10.4466578"><ele>325.1</ele><time>2026-09-25T08:02:30Z</time></trkpt>
      <trkpt lat="50.7224847" lon="10.4467700"><ele>324.7</ele><time>2026-09-25T08:02:32Z</time></trkpt>
      <trkpt lat="50.7224892" lon="10.4468450"><ele>324.8</ele><time>2026-09-25T08:02:34Z</time></trkpt>
      <trkpt lat="50.7224743" lon="10.4469208"><ele>324.8</ele><time>2026-09-25T08:02:36Z</time></trkpt>
      <trkpt lat="50.7224876" lon="10.4470251"><ele>324.5</ele><time>2026-09-25T08:02:38Z</time></trkpt>
      <trkpt lat="50.7224884" lon="10.4471100"><ele>324.5</ele><time>2026-09-25T08:02:40Z</time></trkpt>
      <trkpt lat="50.7224724" lon="10.4471869"><ele>324.3</ele><time>2026-09-25T08:02:42Z</time></trkpt>
      <trkpt lat="50.7224647" lon="10.4472630"><ele>324.2</ele><time>2026-09-25T08:02:44Z</time></trkpt>
      <trkpt lat="50.7224630" lon="10.4473385"><ele>324.0</ele><time>2026-09-25T08:02:46Z</time></trkpt>
      <trkpt lat="50.7224403" lon="10.4474231"><ele>323.9</ele><time>2026-09-25T08:02:48Z</time></trkpt>
      <trkpt lat="50.7224368" lon="10.4475146"><ele>323.7</ele><time>2026-09-25T08:02:50Z</time></trkpt>
      <trkpt lat="50.7224093" lon="10.4475887"><ele>323.6</ele><time>2026-09-25T08:02:52Z</time></trkpt>
      <trkpt lat="50.7223864" lon="10.4476869"><ele>323.4</ele><time>2026-09-25T08:02:54Z</time></trkpt>
      <trkpt lat="50.7223790" lon="10.4477594"><ele>323.5</ele><time>2026-09-25T08:02:56Z</time></trkpt>
      <trkpt lat="50.7223475" lon="10.4478374"><ele>323.4</ele><time>2026-09-25T08:02:58Z</time></trkpt>
      <trkpt lat="50.7223263" lon="10.4479201"><ele>323.1</ele><time>2026-09-25T08:03:00Z</time></trkpt>
      <trkpt lat="50.7223115" lon="10.4480025"><ele>323.1</ele><time>2026-09-25T08:03:02Z</time></trkpt>
      <trkpt lat="50.7222698" lon="10.4480487"><ele>322.8</ele><time>2026-09-25T08:03:04Z</time></trkpt>
      <trkpt lat="50.7222506" lon="10.4481224"><ele>322.5</ele><time>2026-09-25T08:03:06Z</time></trkpt>
      <trkpt lat="50.7222169" lon="10.4482182"><ele>322.6</ele><time>2026-09-25T08:03:08Z</time></trkpt>
      <trkpt lat="50.7221933" lon="10.4482724"><ele>322.4</ele><time>2026-09-25T08:03:10Z</time></trkpt>
      <trkpt lat="50.7221611" lon="10.4483574"><ele>322.3</ele><time>2026-09-25T08:03:12Z</time></trkpt>
      <trkpt lat="50.7221187" lon="10.4484280"><ele>322.0</ele><time>2026-09-25T08:03:14Z</time></trkpt>
      <trkpt lat="50.7220856" lon="10.4484900"><ele>321.8</ele><time>2026-09-25T08:03:16Z</time></trkpt>
      <trkpt lat="50.7220499" lon="10.4485499"><ele>321.6</ele><time>2026-09-25T08:03:18Z</time></trkpt>
      <trkpt lat="50.7220151" lon="10.4486200"><ele>321.7</ele><time>2026-09-25T08:03:20Z</time></trkpt>
      <trkpt lat="50.7219887" lon="10.4486733"><ele>321.3</ele><time>2026-09-25T08:03:22Z</time></trkpt>
      <trkpt lat="50.7219433" lon="10.4487256"><ele>321.3</ele><time>2026-09-25T08:03:24Z</time></trkpt>
      <trkpt lat="50.7219090" lon="10.4488086"><ele>320.9</ele><time>2026-09-25T08:03:26Z</time></trkpt>
      <trkpt lat="50.7218583" lon="10.4488560"><ele>320.8</ele><time>2026-09-25T08:03:28Z</time></trkpt>
      <trkpt lat="50.7218273" lon="10.4489361"><ele>320.8</ele><time>2026-09-25T08:03:30Z</time></trkpt>
      <trkpt lat="50.7217851" lon="10.4489860"><ele>320.6</ele><time>2026-09-25T08:03:32Z</time></trkpt>
      <trkpt lat="50.7217480" lon="10.4490281"><ele>320.4</ele><time>2026-09-25T08:03:34Z</time></trkpt>
      <trkpt lat="50.7217267" lon="10.4490900"><ele>320.1</ele><time>2026-09-25T08:03:36Z</time></trkpt>
      <trkpt lat="50.7216883" lon="10.4491678"><ele>319.8</ele><time>2026-09-25T08:03:38Z</time></trkpt>
      <trkpt lat="50.7216299" lon="10.4492412"><ele>319.9</ele><time>2026-09-25T08:03:40Z</time></trkpt>
      <trkpt lat="50.7216123" lon="10.4492899"><ele>319.6</ele><time>2026-09-25T08:03:42Z</time></trkpt>
      <trkpt lat="50.7215671" lon="10.4493606"><ele>319.5</ele><time>2026-09-25T08:03:44Z</time></trkpt>
      <trkpt lat="50.7215204" lon="10.4493953"><ele>319.3</ele><time>2026-09-25T08:03:46Z</time></trkpt>
      <trkpt lat="50.7214858" lon="10.4494631"><ele>319.3</ele><time>2026-09-25T08:03:48Z</time></trkpt>
      <trkpt lat="50.7214543" lon="10.4495261"><ele>318.8</ele><time>2026-09-25T08:03:50Z</time></trkpt>
      <trkpt lat="50.7214194" lon="10.4495809"><ele>319.0</ele><time>2026-09-25T08:03:52Z</time></trkpt>
      <trkpt lat="50.7213685" lon="10.4496506"><ele>318.5</ele><time>2026-09-25T08:03:54Z</time></trkpt>
      <trkpt lat="50.7213402" lon="10.4497166"><ele>318.5</ele><time>2026-09-25T08:03:56Z</time></trkpt>
      <trkpt lat="50.7213112" lon="10.4497801"><ele>318.4</ele><time>2026-09-25T08:03:58Z</time></trkpt>
      <trkpt lat="50.7212790" lon="10.4498629"><ele>318.2</ele><time>2026-09-25T08:04:00Z</time></trkpt>
      <trkpt lat="50.7212479" lon="10.4499122"><ele>317.9</ele><time>2026-09-25T08:04:02Z</time></trkpt>
      <trkpt lat="50.7212069" lon="10.4500013"><ele>317.9</ele><time>2026-09-25T08:04:04Z</time></trkpt>
      <trkpt lat="50.7211800" lon="10.4500587"><ele>317.6</ele><time>2026-09-25T08:04:06Z</time></trkpt>
      <trkpt lat="50.7211515" lon="10.4501321"><ele>317.4</ele><time>2026-09-25T08:04:08Z</time></trkpt>
      <trkpt lat="50.7211165" lon="10.4502047"><ele>317.3</ele><time>2026-09-25T08:04:10Z</time></trkpt>
      <trkpt lat="50.7210906" lon="10.4502710"><ele>317.3</ele><time>2026-09-25T08:04:12Z</time></trkpt>
      <trkpt lat="50.7210555" lon="10.4503387"><ele>317.2</ele><time>2026-09-25T08:04:14Z</time></trkpt>
      <trkpt lat="50.7210446" lon="10.4504118"><ele>317.0</ele><time>2026-09-25T08:04:16Z</time></trkpt>
      <trkpt lat="50.7210179" lon="10.4504935"><ele>316.6</ele><time>2026-09-25T08:04:18Z</time></trkpt>
      <trkpt lat="50.7209870" lon="10.4505945"><ele>316.4</ele><time>2026-09-25T08:04:20Z</time></trkpt>
      <trkpt lat="50.7209787" lon="10.4506452"><ele>316.3</ele><time>2026-09-25T08:04:22Z</time></trkpt>
      <trkpt lat="50.7209666" lon="10.4507353"><ele>316.4</ele><time>2026-09-25T08:04:24Z</time></trkpt>
      <trkpt lat="50.7209424" lon="10.4508312"><ele>316.2</ele><time>2026-09-25T08:04:26Z</time></trkpt>
      <trkpt lat="50.7209340" lon="10.4508898"><ele>316.0</ele><time>2026-09-25T08:04:28Z</time></trkpt>
      <trkpt lat="50.7209142" lon="10.4510027"><ele>316.1</ele><time>2026-09-25T08:04:30Z</time></trkpt>
      <trkpt lat="50.7209177" lon="10.4510584"><ele>315.6</ele><time>2026-09-25T08:04:32Z</time></trkpt>
      <trkpt lat="50.7209007" lon="10.4511610"><ele>315.9</ele><time>2026-09-25T08:04:34Z</time></trkpt>
      <trkpt lat="50.7209079" lon="10.4512536"><ele>315.7</ele><time>2026-09-25T08:04:36Z</time></trkpt>
      <trkpt lat="50.7208890" lon="10.4513292"><ele>315.3</ele><time>2026-09-25T08:04:38Z</time></trkpt>
      <trkpt lat="50.7209083" lon="10.4514243"><ele>315.4</ele><time>2026-09-25T08:04:40Z</time></trkpt>
      <trkpt lat="50.7209054" lon="10.4514970"><ele>315.3</ele><time>2026-09-25T08:04:42Z</time></trkpt>
      <trkpt lat="50.7209151" lon="10.4515781"><ele>315.0</ele><time>2026-09-25T08:04:44Z</time></trkpt>
      <trkpt lat="50.7209123" lon="10.4516547"><ele>315.0</ele><time>2026-09-25T08:04:46Z</time></trkpt>
      <trkpt lat="50.7209295" lon="10.4517605"><ele>314.9</ele><time>2026-09-25T08:04:48Z</time></trkpt>
      <trkpt lat="50.7209470" lon="10.4518417"><ele>314.8</ele><time>2026-09-25T08:04:50Z</time></trkpt>
      <trkpt lat="50.7209698" lon="10.4519179"><ele>314.6</ele><time>2026-09-25T08:04:52Z</time></trkpt>
      <trkpt lat="50.7209991" lon="10.4519989"><ele>314.5</ele><time>2026-09-25T08:04:54Z</time></trkpt>
      <trkpt lat="50.7210239" lon="10.4520780"><ele>314.7</ele><time>2026-09-25T08:04:56Z</time></trkpt>
      <trkpt lat="50.7210491" lon="10.4521493"><ele>314.6</ele><time>2026-09-25T08:04:58Z</time></trkpt>
      <trkpt lat="50.7210844" lon="10.4522030"><ele>314.3</ele><time>2026-09-25T08:05:00Z</time></trkpt>
      <trkpt lat="50.7211156" lon="10.4522698"><ele>314.5</ele><time>2026-09-25T08:05:02Z</time></trkpt>
      <trkpt lat="50.7211616" lon="10.4523438"><ele>314.5</ele><time>2026-09-25T08:05:04Z</time></trkpt>
      <trkpt lat="50.7211950" lon="10.4524114"><ele>314.3</ele><time>2026-09-25T08:05:06Z</time></trkpt>
      <trkpt lat="50.7212288" lon="10.4524481"><ele>314.3</ele><time>2026-09-25T08:05:08Z</time></trkpt>
      <trkpt lat="50.7212717" lon="10.4525017"><ele>314.1</ele><time>2026-09-25T08:05:10Z</time></trkpt>
      <trkpt lat="50.7213302" lon="10.4525323"><ele>314.2</ele><time>2026-09-25T08:05:12Z</time></trkpt>
      <trkpt lat="50.7213779" lon="10.4525705"><ele>314.1</ele><time>2026-09-25T08:05:14Z</time></trkpt>
      <trkpt lat="50.7214230" lon="10.4526061"><ele>314.3</ele><time>2026-09-25T08:05:16Z</time></trkpt>
      <trkpt lat="50.7214696" lon="10.4526291"><ele>314.1</ele><time>2026-09-25T08:05:18Z</time></trkpt>
      <trkpt lat="50.7215368" lon="10.4526745"><ele>314.0</ele><time>2026-09-25T08:05:20Z</time></trkpt>
      <trkpt lat="50.7215728" lon="10.4526877"><ele>314.0</ele><time>2026-09-25T08:05:22Z</time></trkpt>
      <trkpt lat="50.7216385" lon="10.4527001"><ele>314.0</ele><time>2026-09-25T08:05:24Z</time></trkpt>
      <trkpt lat="50.7216889" lon="10.4526946"><ele>314.0</ele><time>2026-09-25T08:05:26Z</time></trkpt>
      <trkpt lat="50.7217537" lon="10.4527014"><ele>313.9</ele><time>2026-09-25T08:05:28Z</time></trkpt>
      <trkpt lat="50.7218070" lon="10.4526878"><ele>314.0</ele><time>2026-09-25T08:05:30Z</time></trkpt>
      <trkpt lat="50.7218480" lon="10.4526639"><ele>314.0</ele><time>2026-09-25T08:05:32Z</time></trkpt>
      <trkpt lat="50.7219056" lon="10.4526454"><ele>313.9</ele><time>2026-09-25T08:05:34Z</time></trkpt>
      <trkpt lat="50.7219496" lon="10.4526326"><ele>314.1</ele><time>2026-09-25T08:05:36Z</time></trkpt>
      <trkpt lat="50.7220076" lon="10.4525722"><ele>313.9</ele><time>2026-09-25T08:05:38Z</time></trkpt>
      <trkpt lat="50.7220509" lon="10.4525383"><ele>314.0</ele><time>2026-09-25T08:05:40Z</time></trkpt>
      <trkpt lat="50.7220925" lon="10.4524998"><ele>314.1</ele><time>2026-09-25T08:05:42Z</time></trkpt>
      <trkpt lat="50.7221470" lon="10.4524619"><ele>314.4</ele><time>2026-09-25T08:05:44Z</time></trkpt>
      <trkpt lat="50.7221862" lon="10.4524136"><ele>314.2</ele><time>2026-09-25T08:05:46Z</time></trkpt>
      <trkpt lat="50.7222346" lon="10.4523495"><ele>314.3</ele><time>2026-09-25T08:05:48Z</time></trkpt>
      <trkpt lat="50.7222681" lon="10.4522840"><ele>314.3</ele><time>2026-09-25T08:05:50Z</time></trkpt>
      <trkpt lat="50.7222964" lon="10.4522129"><ele>314.4</ele><time>2026-09-25T08:05:52Z</time></trkpt>
      <trkpt lat="50.7223370" lon="10.4521423"><ele>314.3</ele><time>2026-09-25T08:05:54Z</time></trkpt>
      <trkpt lat="50.7223684" lon="10.4520582"><ele>314.5</ele><time>2026-09-25T08:05:56Z</time></trkpt>
      <trkpt lat="50.7223942" lon="10.4520028"><ele>314.7</ele><time>2026-09-25T08:05:58Z</time></trkpt>
      <trkpt lat="50.7224181" lon="10.4519205"><ele>314.7</ele><time>2026-09-25T08:06:00Z</time></trkpt>
      <trkpt lat="50.7224214" lon="10.4518371"><ele>314.6</ele><time>2026-09-25T08:06:02Z</time></trkpt>
      <trkpt lat="50.7224536" lon="10.4517676"><ele>314.8</ele><time>2026-09-25T08:06:04Z</time></trkpt>
      <trkpt lat="50.7224628" lon="10.4516757"><ele>315.0</ele><time>2026-09-25T08:06:06Z</time></trkpt>
      <trkpt lat="50.7224787" lon="10.4515828"><ele>315.0</ele><time>2026-09-25T08:06:08Z</time></trkpt>
      <trkpt lat="50.7224817" lon="10.4515134"><ele>315.1</ele><time>2026-09-25T08:06:10Z</time></trkpt>
      <trkpt lat="50.7224758" lon="10.4514280"><ele>315.2</ele><time>2026-09-25T08:06:12Z</time></trkpt>
      <trkpt lat="50.7224873" lon="10.4513408"><ele>315.2</ele><time>2026-09-25T08:06:14Z</time></trkpt>
      <trkpt lat="50.7224752" lon="10.4512392"><ele>315.3</ele><time>2026-09-25T08:06:16Z</time></trkpt>
      <trkpt lat="50.7224800" lon="10.4511537"><ele>315.6</ele><time>2026-09-25T08:06:18Z</time></trkpt>
      <trkpt lat="50.7224729" lon="10.4510861"><ele>315.8</ele><time>2026-09-25T08:06:20Z</time></trkpt>
      <trkpt lat="50.7224623" lon="10.4509782"><ele>315.6</ele><time>2026-09-25T08:06:22Z</time></trkpt>
      <trkpt lat="50.7224560" lon="10.4509106"><ele>315.9</ele><time>2026-09-25T08:06:24Z</time></trkpt>
      <trkpt lat="50.7224384" lon="10.4508256"><ele>316.0</ele><time>2026-09-25T08:06:26Z</time></trkpt>
      <trkpt lat="50.7224191" lon="10.4507325"><ele>316.2</ele><time>2026-09-25T08:06:28Z</time></trkpt>
      <trkpt lat="50.7223996" lon="10.4506675"><ele>316.4</ele><time>2026-09-25T08:06:30Z</time></trkpt>
      <trkpt lat="50.7223806" lon="10.4505695"><ele>316.4</ele><time>2026-09-25T08:06:32Z</time></trkpt>
      <trkpt lat="50.7223678" lon="10.4505014"><ele>316.7</ele><time>2026-09-25T08:06:34Z</time></trkpt>
      <trkpt lat="50.7223503" lon="10.4504330"><ele>316.7</ele><time>2026-09-25T08:06:36Z</time></trkpt>
      <trkpt lat="50.7223176" lon="10.4503596"><ele>316.7</ele><time>2026-09-25T08:06:38Z</time></trkpt>
      <trkpt lat="50.7222861" lon="10.4502641"><ele>317.0</ele><time>2026-09-25T08:06:40Z</time></trkpt>
      <trkpt lat="50.7222665" lon="10.4501972"><ele>317.2</ele><time>2026-09-25T08:06:42Z</time></trkpt>
      <trkpt lat="50.7222287" lon="10.4501472"><ele>317.5</ele><time>2026-09-25T08:06:44Z</time></trkpt>
      <trkpt lat="50.7222144" lon="10.4500452"><ele>317.7</ele><time>2026-09-25T08:06:46Z</time></trkpt>
      <trkpt lat="50.7221811" lon="10.4499878"><ele>317.6</ele><time>2026-09-25T08:06:48Z</time></trkpt>
      <trkpt lat="50.7221499" lon="10.4499257"><ele>318.0</ele><time>2026-09-25T08:06:50Z</time></trkpt>
      <trkpt lat="50.7221030" lon="10.4498496"><ele>318.1</ele><time>2026-09-25T08:06:52Z</time></trkpt>
      <trkpt lat="50.7220835" lon="10.4497932"><ele>318.0</ele><time>2026-09-25T08:06:54Z</time></trkpt>
      <trkpt lat="50.7220325" lon="10.4497363"><ele>318.2</ele><time>2026-09-25T08:06:56Z</time></trkpt>
      <trkpt lat="50.7220135" lon="10.4496528"><ele>318.4</ele><time>2026-09-25T08:06:58Z</time></trkpt>
      <trkpt lat="50.7219635" lon="10.4495941"><ele>318.5</ele><time>2026-09-25T08:07:00Z</time></trkpt>
      <trkpt lat="50.7219313" lon="10.4495313"><ele>318.7</ele><time>2026-09-25T08:07:02Z</time></trkpt>
      <trkpt lat="50.7218903" lon="10.4494791"><ele>319.2</ele><time>2026-09-25T08:07:04Z</time></trkpt>
      <trkpt lat="50.7218585" lon="10.4494233"><ele>319.0</ele><time>2026-09-25T08:07:06Z</time></trkpt>
      <trkpt lat="50.7218217" lon="10.4493502"><ele>319.4</ele><time>2026-09-25T08:07:08Z</time></trkpt>
      <trkpt lat="50.7217860" lon="10.4492849"><ele>319.7</ele><time>2026-09-25T08:07:10Z</time></trkpt>
      <trkpt lat="50.7217332" lon="10.4492339"><ele>319.7</ele><time>2026-09-25T08:07:12Z</time></trkpt>
      <trkpt lat="50.7216906" lon="10.4491439"><ele>320.0</ele><time>2026-09-25T08:07:14Z</time></trkpt>
    </trkseg>
  </trk>
</gpx>
